
# Worst residual: 75.49 km
# MJD 60170.000000 (2023 Aug 14  0:00)
C1AUGE1 = ZTF0Edd = 'Multijunk'
1 89983U 00000AAQ 23226.49919926  .00000000  00000-0  00000-0 0 18407
2 89983 017.5864 027.8823 8062300 121.1066 121.5213 00.38482220    00

# Worst residual: 80.67 km
# MJD 60171.000000 (2023 Aug 15  0:00)
C1AUGE1 = ZTF0Edd = 'Multijunk'
1 89983U 00000AAQ 23227.49919926  .00000000  00000-0  00000-0 0 18408
2 89983 017.5174 028.2561 8079832 121.1751 257.9463 00.38568481    02

# Worst residual: 197.23 km
# MJD 60172.000000 (2023 Aug 16  0:00)
C1AUGE1 = ZTF0Edd = 'Multijunk'
1 89983U 00000AAQ 23228.49919926  .00000000  00000-0  00000-0 0 18409
2 89983 017.4696 028.3681 8111306 121.9591 037.1685 00.39080885    09

# Worst residual: 77.30 km
# MJD 60173.000000 (2023 Aug 17  0:00)
C1AUGE1 = ZTF0Edd = 'Multijunk'
1 89983U 00000AAQ 23229.49919926  .00000000  00000-0  00000-0 0 18400
2 89983 017.4437 028.7046 8104695 122.3070 174.1993 00.38445706    01

# Worst residual: 168.05 km
# MJD 60174.000000 (2023 Aug 18  0:00)
C1AUGE1 = ZTF0Edd = 'Multijunk'
1 89983U 00000AAQ 23230.49919926  .00000000  00000-0  00000-0 0 18402
2 89983 017.3859 028.9678 8142853 122.7236 311.1365 00.38919222    02

# Worst residual: 79.29 km
# MJD 60175.000000 (2023 Aug 19  0:00)
C1AUGE1 = ZTF0Edd = 'Multijunk'
1 89983U 00000AAQ 23231.49919926  .00000000  00000-0  00000-0 0 18403
2 89983 017.3488 029.1164 8137269 123.5301 090.3763 00.38613992    03

# Worst residual: 96.84 km
# MJD 60176.000000 (2023 Aug 20  0:00)
C1AUGE1 = ZTF0Edd = 'Multijunk'
1 89983U 00000AAQ 23232.49919926  .00000000  00000-0  00000-0 0 18404
2 89983 017.2868 029.5156 8152393 123.5824 226.6883 00.38506169    08

# Worst residual: 132.49 km
# MJD 60177.000000 (2023 Aug 21  0:00)
C1AUGE1 = ZTF0Edd = 'Multijunk'
1 89983U 00000AAQ 23233.49919926  .00000000  00000-0  00000-0 0 18405
2 89983 017.2238 029.6801 8178407 124.2946 005.0617 00.39413560    01

# Worst residual: 98.33 km
# MJD 60178.000000 (2023 Aug 22  0:00)
C1AUGE1 = ZTF0Edd = 'Multijunk'
1 89983U 00000AAQ 23234.49919926  .00000000  00000-0  00000-0 0 18406
2 89983 017.2006 029.9722 8175942 124.7675 142.9997 00.38480590    02

# Worst residual: 99.67 km
# MJD 60179.000000 (2023 Aug 23  0:00)
C1AUGE1 = ZTF0Edd = 'Multijunk'
1 89983U 00000AAQ 23235.49919926  .00000000  00000-0  00000-0 0 18407
2 89983 017.1435 030.1750 8197235 125.0964 279.2345 00.38704253    02

# Worst residual: 174.14 km
# MJD 60180.000000 (2023 Aug 24  0:00)
C1AUGE1 = ZTF0Edd = 'Multijunk'
1 89983U 00000AAQ 23236.49919926  .00000000  00000-0  00000-0 0 18408
2 89983 017.1255 030.2196 8217115 125.9852 058.7443 00.38914652    07

# Worst residual: 105.88 km
# MJD 60181.000000 (2023 Aug 25  0:00)
C1AUGE1 = ZTF0Edd = 'Multijunk'
1 89983U 00000AAQ 23237.49919926  .00000000  00000-0  00000-0 0 18409
2 89983 017.0921 030.4817 8211951 126.3320 195.2611 00.38469447    06

# Worst residual: 146.10 km
# MJD 60182.000000 (2023 Aug 26  0:00)
C1AUGE1 = ZTF0Edd = 'Multijunk'
1 89983U 00000AAQ 23238.49919926  .00000000  00000-0  00000-0 0 18400
2 89983 017.0427 030.6229 8242670 126.9951 332.5024 00.39188546    07

# Worst residual: 103.32 km
# MJD 60183.000000 (2023 Aug 27  0:00)
C1AUGE1 = ZTF0Edd = 'Multijunk'
1 89983U 00000AAQ 23239.49919926  .00000000  00000-0  00000-0 0 18401
2 89983 017.0407 030.7397 8237471 127.6379 111.5265 00.38576913    07

# Worst residual: 97.61 km
# MJD 60184.000000 (2023 Aug 28  0:00)
C1AUGE1 = ZTF0Edd = 'Multijunk'
1 89983U 00000AAQ 23240.49919926  .00000000  00000-0  00000-0 0 18403
2 89983 016.9847 031.0104 8253910 127.8376 247.6876 00.38577635    09

# Worst residual: 191.35 km
# MJD 60185.000000 (2023 Aug 29  0:00)
C1AUGE1 = ZTF0Edd = 'Multijunk'
1 89983U 00000AAQ 23241.49919926  .00000000  00000-0  00000-0 0 18404
2 89983 016.9541 031.0418 8281726 128.6337 026.8645 00.39252698    01

# Worst residual: 126.98 km
# MJD 60186.000000 (2023 Aug 30  0:00)
C1AUGE1 = ZTF0Edd = 'Multijunk'
1 89983U 00000AAQ 23242.49919926  .00000000  00000-0  00000-0 0 18405
2 89983 016.9402 031.2394 8274393 129.2252 163.7228 00.38415089    09

# Worst residual: 80.64 km
# MJD 60187.000000 (2023 Aug 31  0:00)
C1AUGE1 = ZTF0Edd = 'Multijunk'
1 89983U 00000AAQ 23243.49919926  .00000000  00000-0  00000-0 0 18406
2 89983 016.9043 031.3650 8299772 129.6887 299.9550 00.38777266    00

# Worst residual: 88.51 km
# MJD 60188.000000 (2023 Sep  1  0:00)
C1AUGE1 = ZTF0Edd = 'Multijunk'
1 89983U 00000AAQ 23244.49919926  .00000000  00000-0  00000-0 0 18407
2 89983 016.9082 031.3392 8303772 130.7838 079.3414 00.38714320    02

# Worst residual: 122.20 km
# MJD 60189.000000 (2023 Sep  2  0:00)
C1AUGE1 = ZTF0Edd = 'Multijunk'
1 89983U 00000AAQ 23245.49919926  .00000000  00000-0  00000-0 0 18408
2 89983 016.9084 031.3597 8300064 131.2406 215.6600 00.38476551    02

# Worst residual: 148.77 km
# MJD 60190.000000 (2023 Sep  3  0:00)
C1AUGE1 = ZTF0Edd = 'Multijunk'
1 89983U 00000AAQ 23246.49919926  .00000000  00000-0  00000-0 0 18409
2 89983 016.9258 031.3243 8318171 132.0875 353.4096 00.39369437    05

# Worst residual: 99.78 km
# MJD 60191.000000 (2023 Sep  4  0:00)
C1AUGE1 = ZTF0Edd = 'Multijunk'
1 89983U 00000AAQ 23247.49919926  .00000000  00000-0  00000-0 0 18400
2 89983 016.9327 031.3060 8311695 132.8207 131.9337 00.38534913    09

# Worst residual: 106.74 km
# MJD 60192.000000 (2023 Sep  5  0:00)
C1AUGE1 = ZTF0Edd = 'Multijunk'
1 89983U 00000AAQ 23248.49919926  .00000000  00000-0  00000-0 0 18401
2 89983 016.9127 031.3907 8323404 133.2065 268.2087 00.38655289    01

# Worst residual: 203.28 km
# MJD 60193.000000 (2023 Sep  6  0:00)
C1AUGE1 = ZTF0Edd = 'Multijunk'
1 89983U 00000AAQ 23249.49919926  .00000000  00000-0  00000-0 0 18402
2 89983 016.9244 031.3757 8343505 134.0474 047.6866 00.39058241    01

# Worst residual: 118.65 km
# MJD 60194.000000 (2023 Sep  7  0:00)
C1AUGE1 = ZTF0Edd = 'Multijunk'
1 89983U 00000AAQ 23250.49919926  .00000000  00000-0  00000-0 0 18404
2 89983 016.9219 031.3808 8333203 134.7109 184.3801 00.38472144    05

# Worst residual: 168.75 km
# MJD 60195.000000 (2023 Sep  8  0:00)
C1AUGE1 = ZTF0Edd = 'Multijunk'
1 89983U 00000AAQ 23251.49919926  .00000000  00000-0  00000-0 0 18405
2 89983 016.9304 031.3611 8361095 135.4318 321.3323 00.39053649    00

# Worst residual: 118.92 km
# MJD 60196.000000 (2023 Sep  9  0:00)
C1AUGE1 = ZTF0Edd = 'Multijunk'
1 89983U 00000AAQ 23252.49919926  .00000000  00000-0  00000-0 0 18406
2 89983 016.9406 031.3040 8350597 136.3106 100.6642 00.38646751    02

# Worst residual: 116.91 km
# MJD 60197.000000 (2023 Sep 10  0:00)
C1AUGE1 = ZTF0Edd = 'Multijunk'
1 89983U 00000AAQ 23253.49919926  .00000000  00000-0  00000-0 0 18407
2 89983 016.9597 031.2432 8352446 136.8347 236.7858 00.38533654    01
